IRIDIUM 155             
1 43573U 18061E   26127.15697372  .00000004  00000+0 -57649-5 0  9996
2 43573  86.3951  73.8268 0002287  85.3177 274.8280 14.34217537407470
IRIDIUM 154             
1 43574U 18061F   26127.20771405  .00000046  00000+0  94616-5 0  9993
2 43574  86.3955  73.9371 0002191  81.3323 278.8121 14.34217676407533
IRIDIUM 163             
1 43575U 18061G   26127.11891803  .00000079  00000+0  21077-4 0  9995
2 43575  86.3952  73.8908 0002265  88.3105 271.8350 14.34217579407497
IRIDIUM 156             
1 43576U 18061H   26127.09354402  .00000165  00000+0  51971-4 0  9994
2 43576  86.3953  73.9087 0002408  83.4911 276.6558 14.34219470407482
IRIDIUM 164             
1 43577U 18061J   26127.14429080  .00000211  00000+0  68292-4 0  9992
2 43577  86.3954  73.9272 0002200  80.6314 279.5131 14.34215160407533
IRIDIUM 159             
1 43578U 18061K   26127.11257506  .00000003  00000+0 -58888-5 0  9993
2 43578  86.3952  73.8782 0002071  87.8279 272.3154 14.34217578407498
IRIDIUM 180             
1 43922U 19002A   26127.18183891  .00000054  00000+0  12143-4 0  9992
2 43922  86.4004  10.7368 0002087  87.5438 272.5997 14.34217991383119
IRIDIUM 176             
1 43923U 19002B   26127.17446558  .00000654  00000+0  99815-4 0  9991
2 43923  86.6122  10.6894 0002298  80.7691 279.3786 14.72255834393219
IRIDIUM 168             
1 43924U 19002C   26127.17549635  .00000159  00000+0  49791-4 0  9990
2 43924  86.4008  10.8155 0002182  85.2736 274.8709 14.34218196383093
IRIDIUM 173             
1 43925U 19002D   26127.16281218  .00000022  00000+0  82789-6 0  9995
2 43925  86.4003  10.7115 0002267  87.3679 272.7776 14.34217735383074
IRIDIUM 169             
1 43926U 19002E   26126.79700239  .00000310  00000+0  94896-4 0  9993
2 43926  86.4249  42.4904 0002898  85.3948 274.7581 14.38610559384276
IRIDIUM 172             
1 43927U 19002F   26127.15646802  .00000076  00000+0  19962-4 0  9990
2 43927  86.4003  10.7219 0002102  87.2063 272.9373 14.34217292383089
IRIDIUM 175             
1 43928U 19002G   26127.03315738  .00000088  00000+0  19995-4 0  9998
2 43928  86.4484 307.7353 0003882  34.4729 325.6724 14.43592183393048
IRIDIUM 171             
1 43929U 19002H   26127.20720992  .00000009  00000+0 -39707-5 0  9998
2 43929  86.4010  11.0020 0002110  81.8239 278.3196 14.34217646383083
IRIDIUM 170             
1 43930U 19002J   26127.18064211  .00000660  00000+0  10073-3 0  9997
2 43930  86.6124  10.6895 0002290  87.8791 272.2688 14.72254304393226
IRIDIUM 167             
1 43931U 19002K   26127.20086769  .00000013  00000+0 -25337-5 0  9997
2 43931  86.4001  10.7251 0002302  78.3040 281.8414 14.34217648383086
IRIDIUM 181             
1 56726U 23068S   26127.13278529  .00000305  00000+0  84708-4 0  9998
2 56726  86.4492  73.9481 0002068  83.5782 276.5654 14.43308952156514
IRIDIUM 177             
1 56727U 23068T   26126.34196658  .00000965  00000+0  12339-3 0  9995
2 56727  86.1979 348.6699 0002418  92.5760 267.5738 14.80255779160179
IRIDIUM 174             
1 56728U 23068U   26127.16828310  .00000506  00000+0  76366-4 0  9996
2 56728  86.6131  10.8380 0002510  89.4449 270.7056 14.72246177159981
IRIDIUM 178             
1 56729U 23068V   26127.20990500  .00001056  00000+0  13554-3 0  9993
2 56729  86.6562  42.4780 0002351  83.1470 277.0019 14.80224976160302
IRIDIUM 179             
1 56730U 23068W   26127.20453228  .00001159  00000+0  14906-3 0  9992
2 56730  86.6793  51.3382 0002642  80.2766 279.8754 14.80231010160309
